[
    {
        "Altitude(m)": 622205.8641811609,
        "Argument of Periapsis(deg)": 0.0,
        "Eccentricity": 0.0,
        "Inclination(deg)": 60.0,
        "Latitude(deg)": -52.16242628072094,
        "Longitude(deg)": -177.29972418405822,
        "Mean Anomaly(deg)": 245.4545,
        "RAAN(deg)": 55.00000000000001,
        "Satellite Name": "Test1 257",
        "Satellite Number": 257,
        "Semi-Major Axis(m)": 6980739.136638005,
        "Time(s)": 0
    },
    {
        "Altitude(m)": 622344.771189379,
        "Argument of Periapsis(deg)": 0.00010418945913296404,
        "Eccentricity": 0.0,
        "Inclination(deg)": 60.0,
        "Latitude(deg)": -52.52000713876832,
        "Longitude(deg)": -176.51851350976193,
        "Mean Anomaly(deg)": 246.07460614546184,
        "RAAN(deg)": 54.999579950860266,
        "Satellite Name": "Test1 257",
        "Satellite Number": 257,
        "Semi-Major Axis(m)": 6980739.136638005,
        "Time(s)": 10
    }
]